{"type":"FeatureCollection","features":[{"type":"Feature","geometry":{"type":"MultiPolygon","coordinates":[[[[-78.55,42.98],[-79.47,42.17],[-80.76,41.95],[-81.97,41.34],[-83.55,40.89],[-85.61,40.32],[-87.72,39.78],[-89.2,39.81],[-91.11,39.67],[-93.06,39.51],[-94.8,39.6],[-96.42,39.47],[-98.15,39.05],[-99.25,37.84],[-100.1,36.19],[-101.48,33.19],[-101.94,31.37],[-101.41,30.68],[-99.97,30.36],[-97.19,30.49],[-95.04,30.46],[-93.56,30.31],[-91.79,29.58],[-90.91571006609347,28.72160624670995],[-91.083,28.732],[-91.315,28.893],[-91.556,28.983],[-91.655,29.121],[-91.742,29.058],[-92.079,29.114],[-92.164,29.181],[-92.629,29.233],[-93.243,29.441],[-93.588,29.43],[-93.777,29.35],[-93.961,29.348],[-94.266,29.222],[-94.502,29.062],[-94.9,28.808],[-95.134,28.597],[-95.489,28.428],[-96.044,28.182],[-96.147,28.055],[-96.427,27.94],[-96.796,27.579],[-97.017,27.081],[-96.876,26.595],[-96.749,25.948],[-97.075,25.799],[-97.23,25.659],[-97.68,25.837],[-98.218,25.934],[-98.509,26.039],[-99.103,26.254],[-99.357,26.519],[-99.489,26.804],[-99.612,27.039],[-99.697,27.291],[-99.724,27.496],[-99.917,27.637],[-100.23,28.008],[-100.41,28.265],[-100.596,28.593],[-100.754,28.844],[-100.911,29.059],[-101.161,29.268],[-101.45,29.518],[-101.616,29.594],[-101.852,29.614],[-102.125,29.651],[-102.3,29.645],[-102.486,29.578],[-102.613,29.283],[-102.733,29.098],[-102.962,28.86],[-103.419,28.868],[-104.191,29.275],[-104.636,29.554],[-104.879,29.863],[-104.926,30.211],[-105.115,30.476],[-105.605,30.822],[-106.064,31.194],[-106.509,31.409],[-106.568,31.573],[-107.183,31.602],[-107.20817238487876,31.602806232967648],[-105.87,33.91],[-105.12,36.05],[-104.33,37.08],[-103.28,38.55],[-102.23,39.45],[-101.68,40.14],[-101.99,40.95],[-103.52,41.02],[-105.4,41.03],[-106.9,40.31],[-107.54,38.59],[-108.3,37.25],[-110.38,37.2],[-111.76,36.97],[-113.4,35.88],[-114.7,35.29],[-116.61,35.29],[-117.49,36.3],[-117.31,37.65],[-116.52,38.73],[-116.51,40.0],[-116.15,40.97],[-115.51,41.44],[-114.4,41.56],[-113.43,42.47],[-112.36,43.41],[-111.31,43.61],[-109.93,43.93],[-109.03999999999999,44.14],[-107.71,44.57],[-106.78,45.01],[-104.45,45.16],[-102.84,46.13],[-99.07,47.91],[-92.42,48.09],[-85.86560706731979,47.530163547142955],[-85.677,47.453],[-84.653,46.989],[-84.444,46.699],[-84.034,46.687],[-83.88,46.326],[-83.814,46.264],[-83.743,46.252],[-83.601,46.229],[-83.414,46.232],[-83.251,46.093],[-83.288,45.851],[-83.292,45.799],[-82.232,45.499],[-81.965,44.144],[-81.902,43.586],[-82.087,43.18],[-82.073,43.025],[-82.196,42.879],[-82.304,42.546],[-82.518,42.326],[-82.69,42.224],[-82.863,42.181],[-82.903,42.063],[-82.863,41.98],[-82.808,41.911],[-82.689,41.863],[-82.459,41.878],[-81.764,42.178],[-81.262,42.421],[-80.316,42.6],[-79.514,42.795],[-79.252,42.966],[-79.373,43.553],[-78.632,43.794],[-78.21254043051006,43.792402667290595],[-78.55,42.98]]],[[[-81.97,27.07],[-80.66,27.98],[-80.23488065486134,28.62128172402271],[-80.197,28.552],[-80.271,28.232],[-79.788,27.148],[-79.7,26.777],[-79.766,26.228],[-79.812,25.576],[-79.965,25.158],[-80.143,24.859],[-80.331,24.705],[-80.635,24.487],[-81.054,24.361],[-81.782,24.208],[-82.816,24.169],[-83.288,24.221],[-83.28,24.513],[-83.238,24.798],[-83.163,25.012],[-82.313,25.017],[-82.368,25.134],[-82.51,25.288],[-82.632,25.453],[-81.934,25.61],[-82.143,26.09],[-82.324,26.171],[-82.535,26.48],[-82.69449363250455,26.83712704669497],[-81.97,27.07]]]]},"properties":{"DN":2,"VALID":"202610121200","EXPIRE":"202610131200","ISSUE":"202610100721","VALID_ISO":"2026-10-12T12:00:00+00:00","EXPIRE_ISO":"2026-10-13T12:00:00+00:00","ISSUE_ISO":"2026-10-10T07:21:00+00:00","FORECASTER":"Mead","LABEL":"TSTM","LABEL2":"General Thunderstorms Risk","stroke":"#55BB55","fill":"#C1E9C1"}}],"_meta":{"source_url":"https://www.spc.noaa.gov/products/outlook/day3otlk_cat.nolyr.geojson","fetched_utc":"2026-10-10T10:59:58.964428+00:00","day":3,"outlook_type":"categorical"}}