{"type":"FeatureCollection","features":[{"type":"Feature","geometry":{"type":"Polygon","coordinates":[[[-89.64,29.13],[-89.58,29.58],[-89.42,30.1],[-89.24,30.43],[-88.83,30.5],[-87.84,30.61],[-87.08,30.6],[-86.71,30.47],[-86.62,30.31],[-86.58970508587103,30.04946373849084],[-87.771,29.878],[-88.406,29.863],[-88.432,29.714],[-88.695,29.394],[-88.581,29.249],[-88.619,29.022],[-88.937,28.691],[-89.175,28.63],[-89.399,28.577],[-89.6701669091665,28.677496362502602],[-89.64,29.13]]]},"properties":{"DN":5,"VALID":"202610091200","EXPIRE":"202610101200","ISSUE":"202610070734","VALID_ISO":"2026-10-09T12:00:00+00:00","EXPIRE_ISO":"2026-10-10T12:00:00+00:00","ISSUE_ISO":"2026-10-07T07:34:00+00:00","FORECASTER":"Jewell","LABEL":"0.05","LABEL2":"5% Any Severe Risk","stroke":"#8B4726","fill":"#C5A392"}}],"_meta":{"source_url":"https://www.spc.noaa.gov/products/outlook/day3otlk_prob.nolyr.geojson","fetched_utc":"2026-10-07T14:16:33.962490+00:00","day":3,"outlook_type":"probabilistic"}}