{"type":"FeatureCollection","features":[{"type":"Feature","geometry":{"type":"MultiPolygon","coordinates":[[[[-98.57,29.39],[-97.69,30.23],[-96.19,32.1],[-95.75,33.01],[-95.02,38.17],[-94.78,40.7],[-95.12,40.95],[-95.44,41.01],[-96.13,40.93],[-97.33,40.52],[-98.31,40.08],[-99.16,39.55],[-100.42,38.44],[-100.66,37.92],[-100.34,37.53],[-99.89,37.55],[-98.32,38.06],[-97.87,37.91],[-97.84,37.79],[-98.05,37.41],[-98.56,36.87],[-102.47,32.03],[-103.1,30.87],[-103.5307349269558,28.926906885066074],[-104.191,29.275],[-104.55195999236686,29.501309748023267],[-103.66,31.08],[-102.98,32.18],[-102.27,33.41],[-102.18,34.09],[-102.55,34.47],[-103.56,34.51],[-104.45,34.46],[-105.92,35.0],[-106.34,36.29],[-105.89,37.73],[-103.6,39.68],[-101.68,40.56],[-97.9,42.17],[-95.55,43.16],[-92.14,43.7],[-90.65,43.5],[-89.72,43.18],[-89.24,42.75],[-89.13,42.24],[-89.34,41.76],[-89.85,41.29],[-90.72,40.64],[-91.91,39.57],[-93.09,37.29],[-94.01,35.09],[-94.68,33.36],[-96.43,30.08],[-97.95,27.55],[-98.40711160455686,26.002236145974127],[-98.509,26.039],[-99.103,26.254],[-99.357,26.519],[-99.489,26.804],[-99.612,27.039],[-99.697,27.291],[-99.724,27.496],[-99.917,27.637],[-100.0464830418965,27.79047670461214],[-98.57,29.39]]],[[[-83.45,29.23],[-81.92,28.82],[-80.31232467983504,28.762922769698285],[-80.197,28.552],[-80.271,28.232],[-79.788,27.148],[-79.7,26.777],[-79.766,26.228],[-79.812,25.576],[-79.965,25.158],[-80.143,24.859],[-80.331,24.705],[-80.635,24.487],[-81.054,24.361],[-81.782,24.208],[-82.816,24.169],[-83.288,24.221],[-83.28,24.513],[-83.238,24.798],[-83.163,25.012],[-82.313,25.017],[-82.368,25.134],[-82.51,25.288],[-82.632,25.453],[-81.934,25.61],[-82.143,26.09],[-82.324,26.171],[-82.535,26.48],[-82.719,26.892],[-83.105,27.532],[-83.07,27.615],[-83.183,27.781],[-83.185,28.105],[-83.156,28.373],[-83.014,28.465],[-82.99,28.551],[-83.026,28.753],[-83.273,28.827],[-83.421,29.093],[-83.625,29.29],[-83.65534539473684,29.329561403508773],[-83.45,29.23]]],[[[-86.27,30.27],[-85.43,30.19],[-84.21245082266911,29.599673126142598],[-84.467,29.438],[-85.018,29.246],[-85.336,29.335],[-85.675,29.436],[-85.767,29.696],[-85.985,29.876],[-86.44627787802237,30.06167159870083],[-86.27,30.27]]]]},"properties":{"DN":2,"VALID":"202610010100","EXPIRE":"202610011200","ISSUE":"202610010035","VALID_ISO":"2026-10-01T01:00:00+00:00","EXPIRE_ISO":"2026-10-01T12:00:00+00:00","ISSUE_ISO":"2026-10-01T00:35:00+00:00","FORECASTER":"Leitman","LABEL":"TSTM","LABEL2":"General Thunderstorms Risk","stroke":"#55BB55","fill":"#C1E9C1"}},{"type":"Feature","geometry":{"type":"Polygon","coordinates":[[[-103.1,30.87],[-102.47,32.03],[-98.56,36.87],[-98.05,37.41],[-97.84,37.79],[-97.87,37.91],[-98.32,38.06],[-99.89,37.55],[-100.34,37.53],[-100.66,37.92],[-100.42,38.44],[-99.16,39.55],[-98.31,40.08],[-97.33,40.52],[-96.13,40.93],[-95.44,41.01],[-95.12,40.95],[-94.78,40.7],[-95.02,38.17],[-95.75,33.01],[-96.19,32.1],[-97.69,30.23],[-98.57,29.39],[-100.0464830418965,27.79047670461214],[-100.23,28.008],[-100.41,28.265],[-100.596,28.593],[-100.754,28.844],[-100.911,29.059],[-101.161,29.268],[-101.45,29.518],[-101.616,29.594],[-101.852,29.614],[-102.125,29.651],[-102.3,29.645],[-102.486,29.578],[-102.613,29.283],[-102.733,29.098],[-102.962,28.86],[-103.419,28.868],[-103.5307349269558,28.926906885066074],[-103.1,30.87]],[[-102.57,31.32],[-102.54,30.64],[-101.68,29.78],[-100.66,29.33],[-100.25,29.5],[-99.62,30.5],[-98.1,33.6],[-97.93,34.27],[-97.96,34.77],[-98.74,35.11],[-99.21,35.07],[-99.78,34.56],[-102.57,31.32]],[[-99.06,38.92],[-98.87,38.62],[-98.2,38.63],[-97.05,39.22],[-96.73,39.65],[-96.75,39.98],[-96.92,40.09],[-97.37,40.16],[-97.9,39.89],[-99.06,38.92]]]},"properties":{"DN":3,"VALID":"202610010100","EXPIRE":"202610011200","ISSUE":"202610010035","VALID_ISO":"2026-10-01T01:00:00+00:00","EXPIRE_ISO":"2026-10-01T12:00:00+00:00","ISSUE_ISO":"2026-10-01T00:35:00+00:00","FORECASTER":"Leitman","LABEL":"MRGL","LABEL2":"Marginal Risk","stroke":"#005500","fill":"#66A366"}},{"type":"Feature","geometry":{"type":"MultiPolygon","coordinates":[[[[-98.74,35.11],[-97.96,34.77],[-97.93,34.27],[-98.1,33.6],[-99.62,30.5],[-100.25,29.5],[-100.66,29.33],[-101.68,29.78],[-102.54,30.64],[-102.57,31.32],[-99.78,34.56],[-99.21,35.07],[-98.74,35.11]]],[[[-96.92,40.09],[-96.75,39.98],[-96.73,39.65],[-97.05,39.22],[-98.2,38.63],[-98.87,38.62],[-99.06,38.92],[-97.9,39.89],[-97.37,40.16],[-96.92,40.09]]]]},"properties":{"DN":4,"VALID":"202610010100","EXPIRE":"202610011200","ISSUE":"202610010035","VALID_ISO":"2026-10-01T01:00:00+00:00","EXPIRE_ISO":"2026-10-01T12:00:00+00:00","ISSUE_ISO":"2026-10-01T00:35:00+00:00","FORECASTER":"Leitman","LABEL":"SLGT","LABEL2":"Slight Risk","stroke":"#DDAA00","fill":"#FFE066"}}],"_meta":{"source_url":"https://www.spc.noaa.gov/products/outlook/day1otlk_cat.nolyr.geojson","fetched_utc":"2026-10-01T00:42:52.142143+00:00","day":1,"outlook_type":"categorical"}}