{"type":"FeatureCollection","features":[{"type":"Feature","geometry":{"type":"Polygon","coordinates":[[[-102.66,31.55],[-101.34,32.37],[-100.89,32.61],[-99.61,32.4],[-99.3,31.3],[-100.79305060570535,28.897476944118786],[-100.911,29.059],[-101.161,29.268],[-101.45,29.518],[-101.616,29.594],[-101.852,29.614],[-102.125,29.651],[-102.3,29.645],[-102.486,29.578],[-102.613,29.283],[-102.733,29.098],[-102.962,28.86],[-103.419,28.868],[-103.50455687366403,28.913105761115624],[-102.66,31.55]]]},"properties":{"DN":5,"VALID":"202610010100","EXPIRE":"202610011200","ISSUE":"202610010035","VALID_ISO":"2026-10-01T01:00:00+00:00","EXPIRE_ISO":"2026-10-01T12:00:00+00:00","ISSUE_ISO":"2026-10-01T00:35:00+00:00","FORECASTER":"Leitman","LABEL":"0.05","LABEL2":"5% Hail Risk","stroke":"#8B4726","fill":"#C5A392"}}],"_meta":{"source_url":"https://www.spc.noaa.gov/products/outlook/day1otlk_hail.nolyr.geojson","fetched_utc":"2026-10-01T00:42:52.475076+00:00","day":1,"outlook_type":"hail"}}