{"type":"FeatureCollection","features":[{"type":"Feature","geometry":{"type":"Polygon","coordinates":[[[-102.51,39.57],[-102.13,39.6],[-101.85,39.53],[-101.76,39.38],[-101.69,39.16],[-101.78,38.99],[-101.96,38.73],[-102.07,38.59],[-102.31,38.54],[-102.64,38.51],[-102.96,38.74],[-102.69,39.3],[-102.51,39.57]]]},"properties":{"DN":2,"VALID":"202609290100","EXPIRE":"202609291200","ISSUE":"202609290048","VALID_ISO":"2026-09-29T01:00:00+00:00","EXPIRE_ISO":"2026-09-29T12:00:00+00:00","ISSUE_ISO":"2026-09-29T00:48:00+00:00","FORECASTER":"Dean","LABEL":"0.02","LABEL2":"2% Tornado Risk","stroke":"#1A731D","fill":"#79BA7A"}}],"_meta":{"source_url":"https://www.spc.noaa.gov/products/outlook/day1otlk_torn.nolyr.geojson","fetched_utc":"2026-09-29T02:12:17.603133+00:00","day":1,"outlook_type":"tornado"}}