{"type":"FeatureCollection","features":[{"type":"Feature","geometry":{"type":"Polygon","coordinates":[[[-105.55,32.85],[-103.62,34.97],[-102.03,36.19],[-101.4,36.22],[-100.88,36.1],[-100.29,35.86],[-100.19,35.55],[-100.71,34.68],[-101.07,34.09],[-101.71,32.14],[-102.11,30.94],[-102.30098161965424,29.644646405823472],[-102.486,29.578],[-102.613,29.283],[-102.733,29.098],[-102.962,28.86],[-103.419,28.868],[-104.191,29.275],[-104.636,29.554],[-104.879,29.863],[-104.926,30.211],[-105.115,30.476],[-105.605,30.822],[-106.064,31.194],[-106.509,31.409],[-106.568,31.573],[-106.66735358762124,31.57768496592035],[-105.55,32.85]]]},"properties":{"DN":5,"VALID":"202609300100","EXPIRE":"202609301200","ISSUE":"202609300056","VALID_ISO":"2026-09-30T01:00:00+00:00","EXPIRE_ISO":"2026-09-30T12:00:00+00:00","ISSUE_ISO":"2026-09-30T00:56:00+00:00","FORECASTER":"Dean","LABEL":"0.05","LABEL2":"5% Wind Risk","stroke":"#8B4726","fill":"#C5A392"}}],"_meta":{"source_url":"https://www.spc.noaa.gov/products/outlook/day1otlk_wind.nolyr.geojson","fetched_utc":"2026-09-30T04:28:19.722341+00:00","day":1,"outlook_type":"wind"}}