{"type":"FeatureCollection","features":[{"type":"Feature","geometry":{"type":"MultiPolygon","coordinates":[[[[-117.82,35.23],[-118.73,38.16],[-118.46000000000001,39.01],[-116.86,39.53],[-115.24,40.93],[-114.38,41.84],[-113.03999999999999,42.89],[-111.87,44.35],[-110.65,45.02],[-109.27,44.54],[-107.74,44.92],[-107.0,45.14],[-104.44,47.26],[-103.35,47.44],[-102.63,47.13],[-102.14,46.68],[-101.94,46.21],[-100.71,44.69],[-101.42,43.21],[-102.46,42.23],[-102.97,41.87],[-103.75,41.14],[-104.15,40.75],[-104.54,39.94],[-104.61,39.17],[-104.58,38.05],[-104.09,36.94],[-104.27,35.92],[-104.15,35.13],[-104.32,34.32],[-104.22,33.01],[-104.45,31.8],[-104.62772536203302,29.54881208091508],[-104.636,29.554],[-104.879,29.863],[-104.926,30.211],[-105.115,30.476],[-105.605,30.822],[-106.064,31.194],[-106.509,31.409],[-106.568,31.573],[-107.183,31.602],[-107.745,31.62],[-108.002,31.623],[-108.044,31.186],[-109.094,31.123],[-109.962,31.131],[-110.773,31.148],[-111.169,31.194],[-112.25,31.509],[-113.701,31.959],[-114.586,32.219],[-115.006,32.395],[-115.016,32.542],[-115.798,32.441],[-116.707,32.394],[-117.217,32.397],[-117.49352299359921,32.44534318069916],[-117.82,35.23]],[[-115.68,35.85],[-115.47,33.82],[-114.13,32.64],[-111.76,32.57],[-110.83,32.86],[-108.7,38.12],[-108.49,40.18],[-110.35,40.72],[-112.89,39.45],[-114.63,38.2],[-115.64,37.22],[-115.68,35.85]]],[[[-78.65,42.92],[-76.76,43.15],[-74.75,43.59],[-72.5,43.59],[-70.45,42.97],[-70.07253191277506,42.86973503933087],[-70.041,42.768],[-69.908,42.491],[-69.795,42.31],[-69.595,42.133],[-69.483,42.001],[-69.443,41.721],[-69.548,41.498],[-69.488,41.199],[-69.663,41.018],[-69.946,40.916],[-70.34,40.942],[-70.838,40.931],[-71.244,40.859],[-71.608,40.77],[-72.156,40.586],[-72.567,40.462],[-72.893,40.33],[-73.2,40.303],[-73.648,40.236],[-73.751,39.803],[-73.839,39.533],[-74.05137410071941,39.24379136690648],[-75.42,39.7],[-76.62,39.69],[-77.66,39.47],[-79.38,38.24],[-80.86,36.18],[-81.43,34.74],[-80.68,32.79],[-80.44343797540633,31.95844864082224],[-80.764,31.633],[-81.09,30.74],[-80.989,30.128],[-80.765,29.498],[-80.349,28.83],[-80.197,28.552],[-80.271,28.232],[-79.788,27.148],[-79.7,26.777],[-79.766,26.228],[-79.812,25.576],[-79.965,25.158],[-80.143,24.859],[-80.331,24.705],[-80.635,24.487],[-81.054,24.361],[-81.782,24.208],[-82.816,24.169],[-83.288,24.221],[-83.28,24.513],[-83.238,24.798],[-83.163,25.012],[-82.313,25.017],[-82.368,25.134],[-82.51,25.288],[-82.632,25.453],[-81.934,25.61],[-82.143,26.09],[-82.324,26.171],[-82.535,26.48],[-82.719,26.892],[-83.105,27.532],[-83.07,27.615],[-83.183,27.781],[-83.185,28.105],[-83.156,28.373],[-83.014,28.465],[-82.99,28.551],[-83.026,28.753],[-83.273,28.827],[-83.421,29.093],[-83.625,29.29],[-83.73569131832798,29.43430868167203],[-83.17,30.0],[-82.17,31.32],[-81.85,32.87],[-82.14,34.68],[-83.14,36.02],[-84.74,37.26],[-86.63,37.9],[-86.85,39.16],[-85.65,40.67],[-84.59,41.62],[-82.4393982788296,42.40680550774527],[-82.518,42.326],[-82.69,42.224],[-82.863,42.181],[-82.903,42.063],[-82.863,41.98],[-82.808,41.911],[-82.689,41.863],[-82.459,41.878],[-81.764,42.178],[-81.262,42.421],[-80.316,42.6],[-79.514,42.795],[-79.34174997265667,42.90742272776988],[-78.65,42.92]]],[[[-89.03,47.21],[-91.41,46.83],[-93.02,47.04],[-93.85,47.68],[-94.08,48.29],[-92.8458507004539,48.7625346417181],[-92.5,48.697],[-91.94,48.521],[-91.477,48.338],[-90.777,48.453],[-90.513,48.262],[-90.011,48.266],[-89.521,48.207],[-88.425,48.56],[-87.47071491562792,48.18183349444586],[-89.03,47.21]]]]},"properties":{"DN":2,"VALID":"202610111200","EXPIRE":"202610121200","ISSUE":"202610100532","VALID_ISO":"2026-10-11T12:00:00+00:00","EXPIRE_ISO":"2026-10-12T12:00:00+00:00","ISSUE_ISO":"2026-10-10T05:32:00+00:00","FORECASTER":"Mead","LABEL":"TSTM","LABEL2":"General Thunderstorms Risk","stroke":"#55BB55","fill":"#C1E9C1"}},{"type":"Feature","geometry":{"type":"MultiPolygon","coordinates":[[[[-110.35,40.72],[-108.49,40.18],[-108.7,38.12],[-110.83,32.86],[-111.76,32.57],[-114.13,32.64],[-115.47,33.82],[-115.68,35.85],[-115.64,37.22],[-114.63,38.2],[-112.89,39.45],[-110.35,40.72]]],[[[-76.74,38.37],[-78.21,38.15],[-79.33,36.71],[-79.42,35.03],[-78.29159946264882,33.5472257401749],[-78.569,33.483],[-78.808,33.309],[-78.931,32.928],[-79.294,32.69],[-79.725,32.427],[-80.061,32.203],[-80.21,32.07],[-80.436,31.966],[-80.44343797540633,31.95844864082224],[-80.68,32.79],[-81.43,34.74],[-80.86,36.18],[-79.38,38.24],[-77.66,39.47],[-76.62,39.69],[-75.42,39.7],[-74.05137410071941,39.24379136690648],[-74.085,39.198],[-74.372,38.982],[-74.504,38.814],[-74.716,38.67],[-74.701,38.442],[-74.762,38.239],[-74.95595923213932,37.89597950612397],[-76.74,38.37]]]]},"properties":{"DN":3,"VALID":"202610111200","EXPIRE":"202610121200","ISSUE":"202610100532","VALID_ISO":"2026-10-11T12:00:00+00:00","EXPIRE_ISO":"2026-10-12T12:00:00+00:00","ISSUE_ISO":"2026-10-10T05:32:00+00:00","FORECASTER":"Mead","LABEL":"MRGL","LABEL2":"Marginal Risk","stroke":"#005500","fill":"#66A366"}},{"type":"Feature","geometry":{"type":"Polygon","coordinates":[[[-79.42,35.03],[-79.33,36.71],[-78.21,38.15],[-76.74,38.37],[-74.95595923213932,37.89597950612397],[-75.086,37.666],[-75.263,37.548],[-75.356,37.334],[-75.645,36.894],[-75.371,36.199],[-75.12,35.649],[-75.166,35.243],[-75.279,34.984],[-75.429,34.931],[-75.726,34.857],[-76.265,34.375],[-76.54,34.248],[-76.776,34.354],[-76.936,34.358],[-77.521,34.032],[-77.684,33.615],[-77.95,33.516],[-78.163,33.577],[-78.29159946264882,33.5472257401749],[-79.42,35.03]]]},"properties":{"DN":4,"VALID":"202610111200","EXPIRE":"202610121200","ISSUE":"202610100532","VALID_ISO":"2026-10-11T12:00:00+00:00","EXPIRE_ISO":"2026-10-12T12:00:00+00:00","ISSUE_ISO":"2026-10-10T05:32:00+00:00","FORECASTER":"Mead","LABEL":"SLGT","LABEL2":"Slight Risk","stroke":"#DDAA00","fill":"#FFE066"}}],"_meta":{"source_url":"https://www.spc.noaa.gov/products/outlook/day2otlk_cat.nolyr.geojson","fetched_utc":"2026-10-10T16:11:58.611953+00:00","day":2,"outlook_type":"categorical"}}