{"type":"FeatureCollection","features":[{"type":"Feature","geometry":{"type":"GeometryCollection","geometries":[]},"properties":{"DN":0,"VALID":"202610101200","EXPIRE":"202610111200","ISSUE":"202610091729","VALID_ISO":"2026-10-10T12:00:00+00:00","EXPIRE_ISO":"2026-10-11T12:00:00+00:00","ISSUE_ISO":"2026-10-09T17:29:00+00:00","FORECASTER":"Kerr","LABEL":"Less Than 5% All Areas","LABEL2":"","stroke":"","fill":""}}],"_meta":{"source_url":"https://www.spc.noaa.gov/products/outlook/day2otlk_hail.nolyr.geojson","fetched_utc":"2026-10-09T23:51:35.421137+00:00","day":2,"outlook_type":"hail"}}