{"type":"FeatureCollection","features":[{"type":"Feature","geometry":{"type":"Polygon","coordinates":[[[-100.75,38.51],[-101.28,38.8],[-101.29,39.19],[-99.9,39.92],[-97.19,40.4],[-96.47,40.23],[-96.44,39.8],[-96.89,39.18],[-97.79,38.44],[-98.84,37.71],[-99.42,37.25],[-100.14,37.53],[-100.16,37.84],[-100.75,38.51]]]},"properties":{"DN":2,"VALID":"202609301200","EXPIRE":"202610011200","ISSUE":"202609291716","VALID_ISO":"2026-09-30T12:00:00+00:00","EXPIRE_ISO":"2026-10-01T12:00:00+00:00","ISSUE_ISO":"2026-09-29T17:16:00+00:00","FORECASTER":"Mead","LABEL":"0.02","LABEL2":"2% Tornado Risk","stroke":"#1A731D","fill":"#79BA7A"}}],"_meta":{"source_url":"https://www.spc.noaa.gov/products/outlook/day2otlk_torn.nolyr.geojson","fetched_utc":"2026-09-29T23:53:49.520729+00:00","day":2,"outlook_type":"tornado"}}