{"type":"FeatureCollection","features":[{"type":"Feature","geometry":{"type":"Polygon","coordinates":[[[-99.75,29.58],[-98.18,31.75],[-97.73,32.96],[-97.23,34.34],[-97.33,34.97],[-97.64,35.32],[-98.25,35.64],[-98.76,35.77],[-99.19,36.15],[-99.47,36.86],[-99.29,37.48],[-98.28,37.9],[-96.57,37.91],[-95.17,37.41],[-94.38,36.21],[-94.61,33.52],[-96.15,31.04],[-96.73,29.63],[-97.44,27.85],[-98.20882883732077,25.932346463234413],[-98.218,25.934],[-98.509,26.039],[-99.103,26.254],[-99.357,26.519],[-99.489,26.804],[-99.612,27.039],[-99.697,27.291],[-99.724,27.496],[-99.917,27.637],[-100.23,28.008],[-100.23859124965313,28.020266395338073],[-99.75,29.58]]]},"properties":{"DN":5,"VALID":"202610011200","EXPIRE":"202610021200","ISSUE":"202609301656","VALID_ISO":"2026-10-01T12:00:00+00:00","EXPIRE_ISO":"2026-10-02T12:00:00+00:00","ISSUE_ISO":"2026-09-30T16:56:00+00:00","FORECASTER":"Mead","LABEL":"0.05","LABEL2":"5% Wind Risk","stroke":"#8B4726","fill":"#C5A392"}}],"_meta":{"source_url":"https://www.spc.noaa.gov/products/outlook/day2otlk_wind.nolyr.geojson","fetched_utc":"2026-09-30T21:16:28.684117+00:00","day":2,"outlook_type":"wind"}}